{"type": "FeatureCollection", "features": [ {"type": "Feature", "properties": {"norad_id": 66464, "name": "STARLINK-35435", "group": "last-30-days", "lat": -34.72438823376699, "lon": 22.15980241758849, "alt_km": 446.073404128063, "timestamp": "2025-12-12T22:42:11.305029+00:00", "meta": {"OBJECT_NAME": "STARLINK-35435", "OBJECT_ID": "2025-262J", "EPOCH": "2025-12-12T08:00:13.999968", "MEAN_MOTION": 15.40662699, "ECCENTRICITY": 0.00017804, "INCLINATION": 43.0007, "RA_OF_ASC_NODE": 73.7399, "ARG_OF_PERICENTER": 259.1892, "MEAN_ANOMALY": 243.0969, "EPHEMERIS_TYPE": 0, "CLASSIFICATION_TYPE": "U", "NORAD_CAT_ID": 66464, "ELEMENT_SET_NO": 999, "REV_AT_EPOCH": 557, "BSTAR": 0.00095177292, "MEAN_MOTION_DOT": 0.00039612, "MEAN_MOTION_DDOT": 0}, "tle": {"line1": "1 66464U 25262J   25346.33349537  .00039612  00000+0  95177-3 0  9992", "line2": "2 66464  43.0007  73.7399 0001780 259.1892 243.0969 15.40662699  5570"}}, "geometry": {"type": "Point", "coordinates": [22.15980241758849, -34.72438823376699]}}, {"type": "Feature", "properties": {"norad_id": 66465, "name": "STARLINK-35448", "group": "last-30-days", "lat": -13.068232078077399, "lon": 55.694701640810905, "alt_km": 444.9944176678009, "timestamp": "2025-12-12T22:42:11.305041+00:00", "meta": {"OBJECT_NAME": "STARLINK-35448", "OBJECT_ID": "2025-262K", "EPOCH": "2025-12-12T08:00:13.999968", "MEAN_MOTION": 15.40674592, "ECCENTRICITY": 0.00011438, "INCLINATION": 43.0007, "RA_OF_ASC_NODE": 73.6487, "ARG_OF_PERICENTER": 266.8897, "MEAN_ANOMALY": 272.7018, "EPHEMERIS_TYPE": 0, "CLASSIFICATION_TYPE": "U", "NORAD_CAT_ID": 66465, "ELEMENT_SET_NO": 999, "REV_AT_EPOCH": 557, "BSTAR": 0.0010312316, "MEAN_MOTION_DOT": 0.0004298, "MEAN_MOTION_DDOT": 0}, "tle": {"line1": "1 66465U 25262K   25346.33349537  .00042980  00000+0  10312-2 0  9992", "line2": "2 66465  43.0007  73.6487 0001143 266.8897 272.7018 15.40674592  5570"}}, "geometry": {"type": "Point", "coordinates": [55.694701640810905, -13.068232078077399]}}, {"type": "Feature", "properties": {"norad_id": 66466, "name": "STARLINK-35388", "group": "last-30-days", "lat": -4.704418854010231, "lon": 65.01942704820911, "alt_km": 444.2202506254089, "timestamp": "2025-12-12T22:42:11.305051+00:00", "meta": {"OBJECT_NAME": "STARLINK-35388", "OBJECT_ID": "2025-262L", "EPOCH": "2025-12-12T06:00:00.999648", "MEAN_MOTION": 15.40630604, "ECCENTRICITY": 0.00013917, "INCLINATION": 43.0005, "RA_OF_ASC_NODE": 74.0971, "ARG_OF_PERICENTER": 262.0115, "MEAN_ANOMALY": 186.4811, "EPHEMERIS_TYPE": 0, "CLASSIFICATION_TYPE": "U", "NORAD_CAT_ID": 66466, "ELEMENT_SET_NO": 999, "REV_AT_EPOCH": 556, "BSTAR": 0.0019232573, "MEAN_MOTION_DOT": 0.00080703, "MEAN_MOTION_DDOT": 0}, "tle": {"line1": "1 66466U 25262L   25346.25001157  .00080703  00000+0  19233-2 0  9993", "line2": "2 66466  43.0005  74.0971 0001391 262.0115 186.4811 15.40630604  5565"}}, "geometry": {"type": "Point", "coordinates": [65.01942704820911, -4.704418854010231]}}, {"type": "Feature", "properties": {"norad_id": 66467, "name": "STARLINK-35682", "group": "last-30-days", "lat": -21.04034343542494, "lon": 45.76739958208808, "alt_km": 445.9960989009696, "timestamp": "2025-12-12T22:42:11.305062+00:00", "meta": {"OBJECT_NAME": "STARLINK-35682", "OBJECT_ID": "2025-262M", "EPOCH": "2025-12-12T06:00:00.999648", "MEAN_MOTION": 15.40742098, "ECCENTRICITY": 0.00015987, "INCLINATION": 43.0006, "RA_OF_ASC_NODE": 74.1593, "ARG_OF_PERICENTER": 245.6927, "MEAN_ANOMALY": 177.8882, "EPHEMERIS_TYPE": 0, "CLASSIFICATION_TYPE": "U", "NORAD_CAT_ID": 66467, "ELEMENT_SET_NO": 999, "REV_AT_EPOCH": 555, "BSTAR": -0.0014917593, "MEAN_MOTION_DOT": -0.000622, "MEAN_MOTION_DDOT": 0}, "tle": {"line1": "1 66467U 25262M   25346.25001157 -.00062200  00000+0 -14918-2 0  9993", "line2": "2 66467  43.0006  74.1593 0001598 245.6927 177.8882 15.40742098  5557"}}, "geometry": {"type": "Point", "coordinates": [45.76739958208808, -21.04034343542494]}}, {"type": "Feature", "properties": {"norad_id": 66468, "name": "STARLINK-35331", "group": "last-30-days", "lat": 3.754839927396756, "lon": 74.0948308434723, "alt_km": 443.24983051032996, "timestamp": "2025-12-12T22:42:11.305073+00:00", "meta": {"OBJECT_NAME": "STARLINK-35331", "OBJECT_ID": "2025-262N", "EPOCH": "2025-12-12T06:00:00.999648", "MEAN_MOTION": 15.40712845, "ECCENTRICITY": 0.00016909, "INCLINATION": 43.0005, "RA_OF_ASC_NODE": 74.0677, "ARG_OF_PERICENTER": 279.1933, "MEAN_ANOMALY": 181.7087, "EPHEMERIS_TYPE": 0, "CLASSIFICATION_TYPE": "U", "NORAD_CAT_ID": 66468, "ELEMENT_SET_NO": 999, "REV_AT_EPOCH": 556, "BSTAR": -0.00080539416, "MEAN_MOTION_DOT": -0.00033813, "MEAN_MOTION_DDOT": 0}, "tle": {"line1": "1 66468U 25262N   25346.25001157 -.00033813  00000+0 -80539-3 0  9995", "line2": "2 66468  43.0005  74.0677 0001690 279.1933 181.7087 15.40712845  5560"}}, "geometry": {"type": "Point", "coordinates": [74.0948308434723, 3.754839927396756]}}, {"type": "Feature", "properties": {"norad_id": 66469, "name": "STARLINK-35451", "group": "last-30-days", "lat": 42.67106920452892, "lon": 151.44841457815645, "alt_km": 411.5514458931757, "timestamp": "2025-12-12T22:42:11.305084+00:00", "meta": {"OBJECT_NAME": "STARLINK-35451", "OBJECT_ID": "2025-262P", "EPOCH": "2025-12-10T16:12:32.558112", "MEAN_MOTION": 15.50219904, "ECCENTRICITY": 4.921e-05, "INCLINATION": 43.0005, "RA_OF_ASC_NODE": 83.1302, "ARG_OF_PERICENTER": 334.6757, "MEAN_ANOMALY": 25.4079, "EPHEMERIS_TYPE": 0, "CLASSIFICATION_TYPE": "U", "NORAD_CAT_ID": 66469, "ELEMENT_SET_NO": 999, "REV_AT_EPOCH": 524, "BSTAR": -0.0029160526, "MEAN_MOTION_DOT": -0.00165698, "MEAN_MOTION_DDOT": 0}, "tle": {"line1": "1 66469U 25262P   25344.67537683 -.00165698  00000+0 -29161-2 0  9998", "line2": "2 66469  43.0005  83.1302 0000492 334.6757  25.4079 15.50219904  5246"}}, "geometry": {"type": "Point", "coordinates": [151.44841457815645, 42.67106920452892]}}, {"type": "Feature", "properties": {"norad_id": 66470, "name": "STARLINK-35655", "group": "last-30-days", "lat": 12.159744922482357, "lon": 83.39452101547263, "alt_km": 442.30207904940835, "timestamp": "2025-12-12T22:42:11.305095+00:00", "meta": {"OBJECT_NAME": "STARLINK-35655", "OBJECT_ID": "2025-262Q", "EPOCH": "2025-12-12T06:00:00.999648", "MEAN_MOTION": 15.40635553, "ECCENTRICITY": 0.00016751, "INCLINATION": 43.0005, "RA_OF_ASC_NODE": 74.0366, "ARG_OF_PERICENTER": 267.3365, "MEAN_ANOMALY": 206.056, "EPHEMERIS_TYPE": 0, "CLASSIFICATION_TYPE": "U", "NORAD_CAT_ID": 66470, "ELEMENT_SET_NO": 999, "REV_AT_EPOCH": 556, "BSTAR": 0.0017247068, "MEAN_MOTION_DOT": 0.00072272, "MEAN_MOTION_DDOT": 0}, "tle": {"line1": "1 66470U 25262Q   25346.25001157  .00072272  00000+0  17247-2 0  9993", "line2": "2 66470  43.0005  74.0366 0001675 267.3365 206.0560 15.40635553  5566"}}, "geometry": {"type": "Point", "coordinates": [83.39452101547263, 12.159744922482357]}}, {"type": "Feature", "properties": {"norad_id": 66471, "name": "STARLINK-35569", "group": "last-30-days", "lat": 19.997171277416587, "lon": 92.98243283532166, "alt_km": 442.66805349749575, "timestamp": "2025-12-12T22:42:11.305106+00:00", "meta": {"OBJECT_NAME": "STARLINK-35569", "OBJECT_ID": "2025-262R", "EPOCH": "2025-12-12T06:00:00.999648", "MEAN_MOTION": 15.41021493, "ECCENTRICITY": 0.00012325, "INCLINATION": 43.0007, "RA_OF_ASC_NODE": 74.0066, "ARG_OF_PERICENTER": 275.1544, "MEAN_ANOMALY": 210.5129, "EPHEMERIS_TYPE": 0, "CLASSIFICATION_TYPE": "U", "NORAD_CAT_ID": 66471, "ELEMENT_SET_NO": 999, "REV_AT_EPOCH": 556, "BSTAR": -0.013868384, "MEAN_MOTION_DOT": -0.00545793, "MEAN_MOTION_DDOT": 0}, "tle": {"line1": "1 66471U 25262R   25346.25001157 -.00545793  00000+0 -13868-1 0  9993", "line2": "2 66471  43.0007  74.0066 0001232 275.1544 210.5129 15.41021493  5565"}}, "geometry": {"type": "Point", "coordinates": [92.98243283532166, 19.997171277416587]}}, {"type": "Feature", "properties": {"norad_id": 66472, "name": "STARLINK-35567", "group": "last-30-days", "lat": 34.132555204118994, "lon": 116.60817923924412, "alt_km": 438.21190999383816, "timestamp": "2025-12-12T22:42:11.305117+00:00", "meta": {"OBJECT_NAME": "STARLINK-35567", "OBJECT_ID": "2025-262S", "EPOCH": "2025-12-12T06:00:00.999648", "MEAN_MOTION": 15.44124601, "ECCENTRICITY": 0.00010706, "INCLINATION": 43.0003, "RA_OF_ASC_NODE": 73.9581, "ARG_OF_PERICENTER": 279.7549, "MEAN_ANOMALY": 226.2144, "EPHEMERIS_TYPE": 0, "CLASSIFICATION_TYPE": "U", "NORAD_CAT_ID": 66472, "ELEMENT_SET_NO": 999, "REV_AT_EPOCH": 556, "BSTAR": -0.048714686, "MEAN_MOTION_DOT": -0.02031252, "MEAN_MOTION_DDOT": 0}, "tle": {"line1": "1 66472U 25262S   25346.25001157 -.02031252  00000+0 -48715-1 0  9995", "line2": "2 66472  43.0003  73.9581 0001070 279.7549 226.2144 15.44124601  5566"}}, "geometry": {"type": "Point", "coordinates": [116.60817923924412, 34.132555204118994]}}, {"type": "Feature", "properties": {"norad_id": 66473, "name": "STARLINK-35568", "group": "last-30-days", "lat": 42.73461279550066, "lon": 167.32242814510036, "alt_km": 409.2993601309363, "timestamp": "2025-12-12T22:42:11.305128+00:00", "meta": {"OBJECT_NAME": "STARLINK-35568", "OBJECT_ID": "2025-262T", "EPOCH": "2025-12-11T07:39:08.069760", "MEAN_MOTION": 15.50526439, "ECCENTRICITY": 0.00047596, "INCLINATION": 42.9998, "RA_OF_ASC_NODE": 79.3576, "ARG_OF_PERICENTER": 252.6139, "MEAN_ANOMALY": 107.4201, "EPHEMERIS_TYPE": 0, "CLASSIFICATION_TYPE": "U", "NORAD_CAT_ID": 66473, "ELEMENT_SET_NO": 999, "REV_AT_EPOCH": 534, "BSTAR": 0.0038259112, "MEAN_MOTION_DOT": 0.00230458, "MEAN_MOTION_DDOT": 0}, "tle": {"line1": "1 66473U 25262T   25345.31884340  .00230458  00000+0  38259-2 0  9993", "line2": "2 66473  42.9998  79.3576 0004759 252.6139 107.4201 15.50526439  5346"}}, "geometry": {"type": "Point", "coordinates": [167.32242814510036, 42.73461279550066]}}]}